[{"OBJECT_NAME":"UTMN 2 (RS27S)","OBJECT_ID":"2023-091AP","EPOCH":"2026-03-09T23:09:07.917408","MEAN_MOTION":15.29495965,"ECCENTRICITY":0.00097379,"INCLINATION":97.5194,"RA_OF_ASC_NODE":134.949,"ARG_OF_PERICENTER":76.0788,"MEAN_ANOMALY":284.1534,"EPHEMERIS_TYPE":0,"CLASSIFICATION_TYPE":"U","NORAD_CAT_ID":57203,"ELEMENT_SET_NO":999,"REV_AT_EPOCH":14936,"BSTAR":0.00056135701,"MEAN_MOTION_DOT":0.00016013,"MEAN_MOTION_DDOT":0},{"OBJECT_NAME":"STARLINK-31343","OBJECT_ID":"2024-041V","EPOCH":"2026-03-09T09:31:01.235712","MEAN_MOTION":15.27562442,"ECCENTRICITY":0.00015752,"INCLINATION":43.0026,"RA_OF_ASC_NODE":312.6134,"ARG_OF_PERICENTER":269.7459,"MEAN_ANOMALY":90.3212,"EPHEMERIS_TYPE":0,"CLASSIFICATION_TYPE":"U","NORAD_CAT_ID":59093,"ELEMENT_SET_NO":999,"REV_AT_EPOCH":11427,"BSTAR":0.00033569117,"MEAN_MOTION_DOT":8.982e-5,"MEAN_MOTION_DDOT":0}]
